SARSAT 7 (NOAA 15)      
1 25338U 98030A   20321.69575266  .00000031  00000-0  31439-4 0  9993
2 25338  98.7049 345.8846 0010519 174.4659 185.6639 14.25998797170928
METEOSAT-8 (MSG-1)      
1 27509U 02040B   20320.91621948  .00000137  00000-0  00000+0 0  9996
2 27509   6.9929  53.4403 0001869 188.2487 185.0376  1.00266343 66806
GPS BIIR-08             
1 27663U 03005A   20321.16097567 -.00000039  00000-0  00000+0 0  9993
2 27663  55.9379 295.9719 0116109  35.0850 141.5571  2.00571882130400
GPS BIIR-11             
1 28190U 04009A   20321.20633534 -.00000078  00000-0  00000+0 0  9992
2 28190  56.2468 356.7986 0088004 100.5349 262.9426  2.00572275122083
GPS BIIR-12             
1 28361U 04023A   20321.20467786  .00000067  00000-0  00000+0 0  9999
2 28361  54.0763 169.3077 0138761 241.4779 300.1614  2.00560792120166
GPS BIIR-13             
1 28474U 04045A   20320.81325296 -.00000079  00000-0  00000+0 0  9997
2 28474  55.0677  46.7517 0203240 269.2135  85.1466  2.00577413117521
SARSAT 10 (NOAA 18)     
1 28654U 05018A   20321.73923274  .00000123  00000-0  90802-4 0  9993
2 28654  99.0254  19.4512 0014716 158.9677 201.2103 14.12555866798501
GPS BIIR-14M            
1 28874U 05038A   20320.92560942 -.00000075  00000-0  00000+0 0  9991
2 28874  56.3417 354.2096 0138049 267.6097 270.8070  2.00584529110920
METEOSAT-9 (MSG-2)      
1 28912U 05049B   20321.06978366  .00000017  00000-0  00000+0 0  9990
2 28912   4.7470  69.4808 0000796 279.2147  95.3585  1.00268581 54639
GOES 13                 
1 29155U 06018A   20321.74979993  .00000037  00000-0  00000+0 0  9991
2 29155   0.2134 112.2920 0008092 108.2881 167.1969  1.00268988 53074
SARSAT 11 (METOP-A)     
1 29499U 06044A   20321.76672972  .00000016  00000-0  26538-4 0  9996
2 29499  98.5035   3.1905 0001248 123.5694 348.6197 14.21495235730529
GPS BIIR-16M            
1 29601U 06052A   20321.72515784 -.00000037  00000-0  00000+0 0  9998
2 29601  55.9286 294.8712 0077771  66.0573 294.7373  2.00572126102579
GPS BIIR-17M            
1 32260U 07047A   20321.03890852  .00000068  00000-0  00000+0 0  9997
2 32260  53.2025 164.5110 0128288  53.5792 307.6771  2.00551006 95936
GPS BIIR-18M            
1 32384U 07062A   20321.35330507 -.00000078  00000-0  00000-0 0  9995
2 32384  56.4416 354.8843 0013221 136.5831 221.9764  2.00558193 94613
SARSAT 12 (NOAA 19)     
1 33591U 09005A   20321.75427450  .00000042  00000-0  48239-4 0  9993
2 33591  99.1951 331.0669 0014173  12.8765 347.2765 14.12439141606893
GOES 14                 
1 35491U 09033A   20321.62448792 -.00000093  00000-0  00000+0 0  9999
2 35491   0.2319 264.9417 0013311 314.9452 316.8158  1.00271683 41712
GOES 15                 
1 36411U 10008A   20321.70864037  .00000049  00000-0  00000+0 0  9999
2 36411   0.2427 100.4245 0001413 307.5342 135.8927  1.00283526 39229
GLONASS-K 1             
1 37372U 11009A   20321.58570736 -.00000064  00000-0  00000+0 0  9992
2 37372  65.8999  22.6789 0010529 223.8013 199.9171  2.13107536 75658
GPS BIIF-2              
1 37753U 11036A   20321.14946052 -.00000074  00000-0  00000+0 0  9996
2 37753  56.2793  51.3118 0099495  46.5799 316.2941  2.00561297 68376
GSAT0101 (GALILEO-PFM)  
1 37846U 11060A   20320.87761042 -.00000087  00000-0  00000+0 0  9993
2 37846  56.7205  37.1293 0001560 303.7373  56.2850  1.70475124 56488
GSAT0102 (GALILEO-FM2)  
1 37847U 11060B   20315.52145200 -.00000072  00000-0  00000+0 0  9996
2 37847  56.7183  37.2758 0003405 289.3628  69.6130  1.70475300 56387
LUCH 5A                 
1 37951U 11074B   20321.83914545 -.00000046  00000-0  00000+0 0  9995
2 37951   3.6078 110.6093 0001689  98.8875 315.9622  1.00268988 32757
METEOSAT-10 (MSG-3)     
1 38552U 12035B   20321.31368870  .00000059  00000-0  00000-0 0  9992
2 38552   1.2803 350.7565 0001460 197.6012 349.8044  1.00264888 30414
SARSAT 13 (METOP-B)     
1 38771U 12049A   20321.74771711  .00000016  00000-0  27141-4 0  9991
2 38771  98.7112  18.8169 0000344 288.7191 181.1033 14.21486957423650
GPS BIIF-3              
1 38833U 12053A   20321.13123308  .00000021  00000-0  00000+0 0  9997
2 38833  53.6133 227.0875 0103603  38.9964 321.8039  2.00568247 59432
GSAT0103 (GALILEO-FM3)  
1 38857U 12055A   20320.91951818  .00000074  00000-0  00000+0 0  9993
2 38857  55.0015 157.6125 0001050 240.5690 119.4927  1.70473738 50398
GSAT0104 (GALILEO-FM4)  
1 38858U 12055B   20321.44049174  .00000069  00000-0  00000+0 0  9990
2 38858  55.0026 157.5975 0000315 113.0815 246.9894  1.70473694 50355
GPS BIIF-4              
1 39166U 13023A   20320.99309204 -.00000074  00000-0  00000+0 0  9998
2 39166  55.9963 350.7983 0084002  31.0694 329.4788  2.00563836 54975
INSAT-3D                
1 39216U 13038B   20321.77271434 -.00000157  00000-0  00000+0 0  9992
2 39216   0.0576  98.6433 0001055 124.4167 193.5958  1.00272305 26862
GPS BIIF-5              
1 39533U 14008A   20319.49262398  .00000010  00000-0  00000-0 0  9995
2 39533  53.7248 232.6041 0048340 201.1160 158.7225  2.00575371 48778
LUCH 5V                 
1 39727U 14023A   20321.76716312 -.00000269  00000-0  00000+0 0  9996
2 39727   0.4387  13.8078 0000425 227.6620 185.7751  1.00269671542080
GPS BIIF-6              
1 39741U 14026A   20317.77936633 -.00000068  00000-0  00000+0 0  9998
2 39741  56.2495  50.9715 0021899 290.9588  68.8178  2.00566398 47563
GPS BIIF-7              
1 40105U 14045A   20320.36533220  .00000080  00000-0  00000-0 0  9993
2 40105  54.6008 169.9236 0017567 102.3881 257.8986  2.00569642 45198
GSAT0201 (GALILEO 5)    
1 40128U 14050A   20314.93181590 -.00000071  00000+0  00000+0 0  9998
2 40128  50.5427 355.5720 1656314 104.1436 274.7936  1.85519222 40379
GSAT0202 (GALILEO 6)    
1 40129U 14050B   20321.12403121 -.00000100  00000-0  00000+0 0  9999
2 40129  50.5762 354.3666 1653547 105.1599 273.7089  1.85519924 42621
GPS BIIF-8              
1 40294U 14068A   20319.73902462  .00000029  00000-0  00000-0 0  9997
2 40294  55.4259 110.9090 0030922  48.8439 311.4099  2.00559141 44285
GLONASS-K 2             
1 40315U 14075A   20321.62758934  .00000001  00000-0  00000+0 0  9992
2 40315  63.8401 261.4510 0017467 214.4153 344.2090  2.13101403 46413
GPS BIIF-9              
1 40534U 15013A   20320.86994384 -.00000038  00000-0  00000-0 0  9996
2 40534  54.1142 288.6268 0052425   9.4567 350.6191  2.00559195 40920
GSAT0203 (GALILEO 7)    
1 40544U 15017A   20320.65873446 -.00000087  00000-0  00000+0 0  9996
2 40544  56.5139  37.2481 0004834 238.1031 121.8861  1.70475088 35094
GSAT0204 (GALILEO 8)    
1 40545U 15017B   20321.61289799 -.00000089  00000-0  00000+0 0  9998
2 40545  56.5213  37.2383 0003654 207.3497 152.6693  1.70475138 35116
GPS BIIF-10             
1 40730U 15033A   20321.53281366 -.00000078  00000-0  00000+0 0  9993
2 40730  55.5089 349.8783 0057592 353.7153   6.2623  2.00554910 39125
METEOSAT-11 (MSG-4)     
1 40732U 15034A   20321.73393882 -.00000006  00000-0  00000+0 0  9996
2 40732   0.4803 267.2476 0001846 275.3217 137.5548  1.00272680 19596
GSAT0205 (GALILEO 9)    
1 40889U 15045A   20321.26827975 -.00000031  00000-0  00000+0 0  9992
2 40889  56.0380 277.9193 0004671 347.4248  12.5321  1.70474568 32259
GSAT0206 (GALILEO 10)   
1 40890U 15045B   20319.14147737 -.00000031  00000-0  00000+0 0  9999
2 40890  56.0385 277.9744 0003495 327.1206  32.8233  1.70474573 32242
GPS BIIF-11             
1 41019U 15062A   20320.58218204  .00000020  00000-0  00000-0 0  9998
2 41019  55.4221 110.7054 0062627 209.6818 149.9457  2.00563898 36921
ELEKTRO-L 2             
1 41105U 15074A   20321.87473774 -.00000115  00000-0  00000+0 0  9990
2 41105   1.5609  95.1773 0002817 122.6979 138.9776  1.00271990 18076
GSAT0209 (GALILEO 12)   
1 41174U 15079A   20321.07502271  .00000072  00000-0  00000+0 0  9999
2 41174  55.0180 157.3074 0002878 344.1319  15.9292  1.70473173 30593
GSAT0208 (GALILEO 11)   
1 41175U 15079B   20320.70817439  .00000076  00000-0  00000+0 0  9998
2 41175  55.0147 157.3164 0002252 356.6748   3.3971  1.70473110 30593
GPS BIIF-12             
1 41328U 16007A   20320.67681949  .00000076  00000-0  00000-0 0  9992
2 41328  54.8329 170.4369 0043832 221.0557 138.7017  2.00571424 34989
GSAT0211 (GALILEO 14)   
1 41549U 16030A   20317.30971669 -.00000023  00000-0  00000+0 0  9992
2 41549  56.1837 277.8966 0005013 308.0186  51.9081  1.70474351 27820
GSAT0210 (GALILEO 13)   
1 41550U 16030B   20321.12209835 -.00000031  00000-0  00000+0 0  9997
2 41550  56.1799 277.7935 0004540 286.6755  73.2428  1.70474317 27881
INSAT-3DR               
1 41752U 16054A   20321.74876894 -.00000077  00000-0  00000+0 0  9990
2 41752   0.1128  95.7920 0012445 169.8001 134.2453  1.00270931 15366
GSAT0207 (GALILEO 15)   
1 41859U 16069A   20321.36780780  .00000069  00000-0  00000+0 0  9990
2 41859  54.6750 157.6239 0002232 324.9425  35.1111  1.70473104 24877
GSAT0212 (GALILEO 16)   
1 41860U 16069B   20321.22126103  .00000070  00000-0  00000+0 0  9992
2 41860  54.6719 157.6265 0002496  11.1276 348.9475  1.70473100 24890
GSAT0213 (GALILEO 17)   
1 41861U 16069C   20320.41382491  .00000078  00000-0  00000+0 0  9995
2 41861  54.6748 157.6531 0001103 275.7273  84.3367  1.70473175 24880
GSAT0214 (GALILEO 18)   
1 41862U 16069D   20319.97431850  .00000082  00000-0  00000+0 0  9994
2 41862  54.6731 157.6606 0000468 322.0712  38.0056  1.70473150 24865
GOES 16                 
1 41866U 16071A   20321.57551819 -.00000249  00000-0  00000+0 0  9994
2 41866   0.0146 265.3330 0000908  17.4487 265.3555  1.00272447 14663
GSAT-17                 
1 42815U 17040B   20321.73816779 -.00000258  00000-0  00000+0 0  9993
2 42815   0.0499 276.4614 0006080 327.2617 171.7979  1.00271310 12432
GSAT0215 (GALILEO 19)   
1 43055U 17079A   20320.46407191 -.00000032  00000-0  00000-0 0  9996
2 43055  56.1561 277.6511 0003860 283.1583  76.7649  1.70473490 18215
GSAT0216 (GALILEO 20)   
1 43056U 17079B   20319.58354915 -.00000031  00000-0  00000-0 0  9992
2 43056  56.1567 277.6750 0005737 280.5607  79.3400  1.70473578 18211
GSAT0217 (GALILEO 21)   
1 43057U 17079C   20320.39021735 -.00000032  00000-0  00000-0 0  9996
2 43057  56.1539 277.6535 0005344 290.8931  69.0158  1.70473619 18212
GSAT0218 (GALILEO 22)   
1 43058U 17079D   20321.19681487 -.00000031  00000-0  00000-0 0  9991
2 43058  56.1535 277.6288 0006078 277.5642  82.3352  1.70473573 18257
GOES 17                 
1 43226U 18022A   20321.70663395  .00000097  00000-0  00000+0 0  9992
2 43226   0.0256 273.5135 0000119 291.9533 327.9543  1.00273264  9996
GSAT0221 (GALILEO 25)   
1 43564U 18060A   20316.98998697 -.00000077  00000+0  00000+0 0  9997
2 43564  56.8985  37.0151 0004960 254.6572 105.3168  1.70476095 14336
GSAT0222 (GALILEO 26)   
1 43565U 18060B   20320.72934015 -.00000086  00000-0  00000+0 0  9990
2 43565  56.9027  36.9125 0004581 261.4323  98.5533  1.70476118 14440
GSAT0219 (GALILEO 23)   
1 43566U 18060C   20321.53630162 -.00000088  00000-0  00000+0 0  9999
2 43566  56.9053  36.8921 0004399 255.0026 104.9879  1.70475994 14434
GSAT0220 (GALILEO 24)   
1 43567U 18060D   20321.16960830 -.00000087  00000-0  00000+0 0  9996
2 43567  56.9036  36.9023 0004476 256.2881 103.7005  1.70475752 14405
BEIDOU-3 M13            
1 43622U 18072A   20321.46560079  .00000046  00000-0  00000+0 0  9999
2 43622  55.1929 130.7991 0003782 287.6205 255.8210  1.86231808 14689
BEIDOU-3 M14            
1 43623U 18072B   20321.67247117  .00000044  00000-0  00000+0 0  9996
2 43623  55.1975 130.7833 0002981 337.7438  74.6271  1.86231846 14698
METEOR-M2 2             
1 44387U 19038A   20321.87507167 -.00000025  00000-0  79769-5 0  9997
2 44387  98.6395 279.0335 0001891 116.4373 243.7001 14.23682754 71222
